KUIPER-00089            
1 64834U 25151U   25207.91668981  .00057462  00000+0  16550-2 0  9995
2 64834  51.8784 236.2884 0005697 191.1760  26.0827 15.35181289  2713
KUIPER-00090            
1 64835U 25151V   25207.91668981  .00059991  00000+0  17390-2 0  9998
2 64835  51.8784 236.3049 0006037 200.5634   7.7888 15.34957849  1301
KUIPER-00091            
1 64836U 25151W   25207.91668981  .00059183  00000+0  16791-2 0  9996
2 64836  51.8779 236.2495 0005882 172.2290  61.8308 15.35638732  2587
KUIPER-00092            
1 64837U 25151X   25207.91668981  .00058694  00000+0  16770-2 0  9990
2 64837  51.8775 236.2645 0005523 180.8235  45.1737 15.35423508  1894
KUIPER-00093            
1 64838U 25151Y   25207.91668981  .00060836  00000+0  17488-2 0  9999
2 64838  51.8787 236.2879 0005542 186.3571  31.3015 15.35217034  2557
KUIPER-00094            
1 64839U 25151Z   25207.91668981  .00058752  00000+0  16754-2 0  9999
2 64839  51.8777 236.2620 0005340 179.2972  48.1601 15.35484641  1863
