<?xml version="1.0" encoding="UTF-8"?>
<ndm xmlns:xsi="http://www.w3.org/2001/XMLSchema-instance" xsi:noNamespaceSchemaLocation="https://sanaregistry.org/r/ndmxml_unqualified/ndmxml-2.0.0-master-2.0.xsd">
<omm id="CCSDS_OMM_VERS" version="2.0">
<header><CREATION_DATE/><ORIGINATOR/></header><body><segment><metadata><OBJECT_NAME>KUIPER-00089</OBJECT_NAME><OBJECT_ID>2025-151U</OBJECT_ID><CENTER_NAME>EARTH</CENTER_NAME><REF_FRAME>TEME</REF_FRAME><TIME_SYSTEM>UTC</TIME_SYSTEM><MEAN_ELEMENT_THEORY>SGP4</MEAN_ELEMENT_THEORY></metadata><data><meanElements><EPOCH>2025-07-26T22:00:01.999584</EPOCH><MEAN_MOTION>15.35181289</MEAN_MOTION><ECCENTRICITY>.0005697</ECCENTRICITY><INCLINATION>51.8784</INCLINATION><RA_OF_ASC_NODE>236.2884</RA_OF_ASC_NODE><ARG_OF_PERICENTER>191.1760</ARG_OF_PERICENTER><MEAN_ANOMALY>26.0827</MEAN_ANOMALY></meanElements><tleParameters><EPHEMERIS_TYPE>0</EPHEMERIS_TYPE><CLASSIFICATION_TYPE>U</CLASSIFICATION_TYPE><NORAD_CAT_ID>64834</NORAD_CAT_ID><ELEMENT_SET_NO>999</ELEMENT_SET_NO><REV_AT_EPOCH>271</REV_AT_EPOCH><BSTAR>.1655E-2</BSTAR><MEAN_MOTION_DOT>.57462E-3</MEAN_MOTION_DOT><MEAN_MOTION_DDOT>0</MEAN_MOTION_DDOT></tleParameters></data></segment></body></omm>
<omm id="CCSDS_OMM_VERS" version="2.0">
<header><CREATION_DATE/><ORIGINATOR/></header><body><segment><metadata><OBJECT_NAME>KUIPER-00090</OBJECT_NAME><OBJECT_ID>2025-151V</OBJECT_ID><CENTER_NAME>EARTH</CENTER_NAME><REF_FRAME>TEME</REF_FRAME><TIME_SYSTEM>UTC</TIME_SYSTEM><MEAN_ELEMENT_THEORY>SGP4</MEAN_ELEMENT_THEORY></metadata><data><meanElements><EPOCH>2025-07-26T22:00:01.999584</EPOCH><MEAN_MOTION>15.34957849</MEAN_MOTION><ECCENTRICITY>.0006037</ECCENTRICITY><INCLINATION>51.8784</INCLINATION><RA_OF_ASC_NODE>236.3049</RA_OF_ASC_NODE><ARG_OF_PERICENTER>200.5634</ARG_OF_PERICENTER><MEAN_ANOMALY>7.7888</MEAN_ANOMALY></meanElements><tleParameters><EPHEMERIS_TYPE>0</EPHEMERIS_TYPE><CLASSIFICATION_TYPE>U</CLASSIFICATION_TYPE><NORAD_CAT_ID>64835</NORAD_CAT_ID><ELEMENT_SET_NO>999</ELEMENT_SET_NO><REV_AT_EPOCH>130</REV_AT_EPOCH><BSTAR>.1739E-2</BSTAR><MEAN_MOTION_DOT>.59991E-3</MEAN_MOTION_DOT><MEAN_MOTION_DDOT>0</MEAN_MOTION_DDOT></tleParameters></data></segment></body></omm>
<omm id="CCSDS_OMM_VERS" version="2.0">
<header><CREATION_DATE/><ORIGINATOR/></header><body><segment><metadata><OBJECT_NAME>KUIPER-00091</OBJECT_NAME><OBJECT_ID>2025-151W</OBJECT_ID><CENTER_NAME>EARTH</CENTER_NAME><REF_FRAME>TEME</REF_FRAME><TIME_SYSTEM>UTC</TIME_SYSTEM><MEAN_ELEMENT_THEORY>SGP4</MEAN_ELEMENT_THEORY></metadata><data><meanElements><EPOCH>2025-07-26T22:00:01.999584</EPOCH><MEAN_MOTION>15.35638732</MEAN_MOTION><ECCENTRICITY>.0005882</ECCENTRICITY><INCLINATION>51.8779</INCLINATION><RA_OF_ASC_NODE>236.2495</RA_OF_ASC_NODE><ARG_OF_PERICENTER>172.2290</ARG_OF_PERICENTER><MEAN_ANOMALY>61.8308</MEAN_ANOMALY></meanElements><tleParameters><EPHEMERIS_TYPE>0</EPHEMERIS_TYPE><CLASSIFICATION_TYPE>U</CLASSIFICATION_TYPE><NORAD_CAT_ID>64836</NORAD_CAT_ID><ELEMENT_SET_NO>999</ELEMENT_SET_NO><REV_AT_EPOCH>258</REV_AT_EPOCH><BSTAR>.16791E-2</BSTAR><MEAN_MOTION_DOT>.59183E-3</MEAN_MOTION_DOT><MEAN_MOTION_DDOT>0</MEAN_MOTION_DDOT></tleParameters></data></segment></body></omm>
<omm id="CCSDS_OMM_VERS" version="2.0">
<header><CREATION_DATE/><ORIGINATOR/></header><body><segment><metadata><OBJECT_NAME>KUIPER-00092</OBJECT_NAME><OBJECT_ID>2025-151X</OBJECT_ID><CENTER_NAME>EARTH</CENTER_NAME><REF_FRAME>TEME</REF_FRAME><TIME_SYSTEM>UTC</TIME_SYSTEM><MEAN_ELEMENT_THEORY>SGP4</MEAN_ELEMENT_THEORY></metadata><data><meanElements><EPOCH>2025-07-26T22:00:01.999584</EPOCH><MEAN_MOTION>15.35423508</MEAN_MOTION><ECCENTRICITY>.0005523</ECCENTRICITY><INCLINATION>51.8775</INCLINATION><RA_OF_ASC_NODE>236.2645</RA_OF_ASC_NODE><ARG_OF_PERICENTER>180.8235</ARG_OF_PERICENTER><MEAN_ANOMALY>45.1737</MEAN_ANOMALY></meanElements><tleParameters><EPHEMERIS_TYPE>0</EPHEMERIS_TYPE><CLASSIFICATION_TYPE>U</CLASSIFICATION_TYPE><NORAD_CAT_ID>64837</NORAD_CAT_ID><ELEMENT_SET_NO>999</ELEMENT_SET_NO><REV_AT_EPOCH>189</REV_AT_EPOCH><BSTAR>.1677E-2</BSTAR><MEAN_MOTION_DOT>.58694E-3</MEAN_MOTION_DOT><MEAN_MOTION_DDOT>0</MEAN_MOTION_DDOT></tleParameters></data></segment></body></omm>
<omm id="CCSDS_OMM_VERS" version="2.0">
<header><CREATION_DATE/><ORIGINATOR/></header><body><segment><metadata><OBJECT_NAME>KUIPER-00093</OBJECT_NAME><OBJECT_ID>2025-151Y</OBJECT_ID><CENTER_NAME>EARTH</CENTER_NAME><REF_FRAME>TEME</REF_FRAME><TIME_SYSTEM>UTC</TIME_SYSTEM><MEAN_ELEMENT_THEORY>SGP4</MEAN_ELEMENT_THEORY></metadata><data><meanElements><EPOCH>2025-07-26T22:00:01.999584</EPOCH><MEAN_MOTION>15.35217034</MEAN_MOTION><ECCENTRICITY>.0005542</ECCENTRICITY><INCLINATION>51.8787</INCLINATION><RA_OF_ASC_NODE>236.2879</RA_OF_ASC_NODE><ARG_OF_PERICENTER>186.3571</ARG_OF_PERICENTER><MEAN_ANOMALY>31.3015</MEAN_ANOMALY></meanElements><tleParameters><EPHEMERIS_TYPE>0</EPHEMERIS_TYPE><CLASSIFICATION_TYPE>U</CLASSIFICATION_TYPE><NORAD_CAT_ID>64838</NORAD_CAT_ID><ELEMENT_SET_NO>999</ELEMENT_SET_NO><REV_AT_EPOCH>255</REV_AT_EPOCH><BSTAR>.17488E-2</BSTAR><MEAN_MOTION_DOT>.60836E-3</MEAN_MOTION_DOT><MEAN_MOTION_DDOT>0</MEAN_MOTION_DDOT></tleParameters></data></segment></body></omm>
<omm id="CCSDS_OMM_VERS" version="2.0">
<header><CREATION_DATE/><ORIGINATOR/></header><body><segment><metadata><OBJECT_NAME>KUIPER-00094</OBJECT_NAME><OBJECT_ID>2025-151Z</OBJECT_ID><CENTER_NAME>EARTH</CENTER_NAME><REF_FRAME>TEME</REF_FRAME><TIME_SYSTEM>UTC</TIME_SYSTEM><MEAN_ELEMENT_THEORY>SGP4</MEAN_ELEMENT_THEORY></metadata><data><meanElements><EPOCH>2025-07-26T22:00:01.999584</EPOCH><MEAN_MOTION>15.35484641</MEAN_MOTION><ECCENTRICITY>.000534</ECCENTRICITY><INCLINATION>51.8777</INCLINATION><RA_OF_ASC_NODE>236.2620</RA_OF_ASC_NODE><ARG_OF_PERICENTER>179.2972</ARG_OF_PERICENTER><MEAN_ANOMALY>48.1601</MEAN_ANOMALY></meanElements><tleParameters><EPHEMERIS_TYPE>0</EPHEMERIS_TYPE><CLASSIFICATION_TYPE>U</CLASSIFICATION_TYPE><NORAD_CAT_ID>64839</NORAD_CAT_ID><ELEMENT_SET_NO>999</ELEMENT_SET_NO><REV_AT_EPOCH>186</REV_AT_EPOCH><BSTAR>.16754E-2</BSTAR><MEAN_MOTION_DOT>.58752E-3</MEAN_MOTION_DOT><MEAN_MOTION_DDOT>0</MEAN_MOTION_DDOT></tleParameters></data></segment></body></omm>
</ndm>
